{
    "links": {
        "self": "http://www.neowsapp.com/rest/v1/neo/54097872?api_key=iIulBulltgU6a56xZRHN4H3l9WmuAYTsLGpBGhQ2"
    },
    "id": "54097872",
    "neo_reference_id": "54097872",
    "name": "(2020 XK)",
    "designation": "2020 XK",
    "nasa_jpl_url": "http://ssd.jpl.nasa.gov/sbdb.cgi?sstr=54097872",
    "absolute_magnitude_h": 25.072,
    "estimated_diameter": {
        "kilometers": {
            "estimated_diameter_min": 0.0257131318,
            "estimated_diameter_max": 0.0574963107
        },
        "meters": {
            "estimated_diameter_min": 25.7131318402,
            "estimated_diameter_max": 57.496310709
        },
        "miles": {
            "estimated_diameter_min": 0.0159773944,
            "estimated_diameter_max": 0.0357265401
        },
        "feet": {
            "estimated_diameter_min": 84.3606714665,
            "estimated_diameter_max": 188.6361960267
        }
    },
    "is_potentially_hazardous_asteroid": false,
    "close_approach_data": [
        {
            "close_approach_date": "2020-12-13",
            "close_approach_date_full": "2020-Dec-13 02:17",
            "epoch_date_close_approach": 1607825820000,
            "relative_velocity": {
                "kilometers_per_second": "7.1450860153",
                "kilometers_per_hour": "25722.309655086",
                "miles_per_hour": "15982.8429076283"
            },
            "miss_distance": {
                "astronomical": "0.0852160926",
                "lunar": "33.1490600214",
                "kilometers": "12748145.942682762",
                "miles": "7921330.5718036356"
            },
            "orbiting_body": "Earth"
        }
    ],
    "orbital_data": {
        "orbit_id": "2",
        "orbit_determination_date": "2020-12-07 05:27:03",
        "first_observation_date": "2020-12-04",
        "last_observation_date": "2020-12-07",
        "data_arc_in_days": 3,
        "observations_used": 26,
        "orbit_uncertainty": "8",
        "minimum_orbit_intersection": ".0849575",
        "jupiter_tisserand_invariant": "3.427",
        "epoch_osculation": "2459188.5",
        "eccentricity": ".5248927374435305",
        "semi_major_axis": "2.242522942130893",
        "inclination": "8.093098164245019",
        "ascending_node_longitude": "74.92308286695226",
        "orbital_period": "1226.602284058179",
        "perihelion_distance": "1.065438936255889",
        "perihelion_argument": "13.08241898383826",
        "aphelion_distance": "3.419606948005898",
        "perihelion_time": "2459202.301611266435",
        "mean_anomaly": "355.9493145247715",
        "mean_motion": ".2934936651258712",
        "equinox": "J2000",
        "orbit_class": {
            "orbit_class_type": "AMO",
            "orbit_class_description": "Near-Earth asteroid orbits similar to that of 1221 Amor",
            "orbit_class_range": "1.017 AU < q (perihelion) < 1.3 AU"
        }
    },
    "is_sentry_object": false
}